*******************************************************************************
Ephemeris / WWW_USER Mon Mar 24 08:49:01 2025 Pasadena, USA      / Horizons    
*******************************************************************************
Target body name: (2018 OG)                       {source: JPL#12}
Center body name: Earth (399)                     {source: DE441}
Center-site name: Mauna Kea
*******************************************************************************
Start time      : A.D. 2018-Sep-04 04:44:00.0000 UT      
Stop  time      : A.D. 2018-Sep-04 15:57:00.0000 UT      
Step-size       : 1 minutes
*******************************************************************************
Target pole/equ : undefined
Target radii    : undefined                                                    
Center geodetic : 204.5278, 19.8260847, 4.21024   {E-lon(deg),Lat(deg),Alt(km)}
Center cylindric: 204.5278, 6006.35451, 2151.0229 {E-lon(deg),Dxy(km),Dz(km)}
Center pole/equ : ITRF93                          {East-longitude positive}
Center radii    : 6378.137, 6378.137, 6356.752 km {Equator_a, b, pole_c}       
Target primary  : Sun
Vis. interferer : MOON (R_eq= 1737.400) km        {source: DE441}
Rel. light bend : Sun                             {source: DE441}
Rel. lght bnd GM: 1.3271E+11 km^3/s^2                                          
Small-body perts: Yes                             {source: SB441-N16}
Atmos refraction: NO (AIRLESS)
RA format       : HMS
Time format     : CAL 
Calendar mode   : Mixed Julian/Gregorian
RTS-only print  : NO       
EOP file        : eop.250321.p250617                                           
EOP coverage    : DATA-BASED 1962-JAN-20 TO 2025-MAR-21. PREDICTS-> 2025-JUN-16
Units conversion: 1 au= 149597870.700 km, c= 299792.458 km/s, 1 day= 86400.0 s 
Table cut-offs 1: Elevation (-90.0deg=NO ),Airmass (>38.000=NO), Daylight (YES)
Table cut-offs 2: Solar elongation (  0.0,180.0=NO ),Local Hour Angle( 0.0=NO )
Table cut-offs 3: RA/DEC angular rate (     0.0=NO )                           
*******************************************************************************
Initial IAU76/J2000 heliocentric ecliptic osculating elements (au, days, deg.):
  EPOCH=  2458389.5 ! 2018-Sep-28.00 (TDB)         Residual RMS= .17662        
   EC= .5817218672922059   QR= .9873203561553971   TP= 2458366.942240702       
   OM= 131.0345430575832   W=  220.7633135105564   IN= 9.123860581277821       
  Equivalent ICRF heliocentric cartesian coordinates (au, au/d):
   X= 9.625437195102586E-01  Y= 3.686106454146055E-01  Z=-5.877845729655690E-03
  VX=-3.555418036941177E-03 VY= 1.979451357965206E-02 VZ= 6.659913004156397E-03
Asteroid physical parameters (km, seconds, rotational period in hours):        
   GM= n.a.                RAD= n.a.               ROTPER= n.a.                
   H= 23.6                 G= .150                 B-V= n.a.                   
                           ALBEDO= n.a.            STYP= n.a.                  
*******************************************************************************
 Date__(UT)__HR:MN     R.A._________(ICRF)_________DEC
******************************************************
$$SOE
 2018-Sep-04 08:50     05 45 38.938752 -10 01 07.59494
 2018-Sep-04 08:51     05 45 39.068316 -10 01 07.15940
 2018-Sep-04 08:52     05 45 39.197828 -10 01 06.72397
 2018-Sep-04 08:53     05 45 39.327286 -10 01 06.28864
 2018-Sep-04 08:54     05 45 39.456692 -10 01 05.85341
 2018-Sep-04 08:55     05 45 39.586044 -10 01 05.41829
 2018-Sep-04 08:56     05 45 39.715342 -10 01 04.98327
 2018-Sep-04 08:57     05 45 39.844587 -10 01 04.54835
 2018-Sep-04 08:58     05 45 39.973778 -10 01 04.11353
 2018-Sep-04 08:59     05 45 40.102915 -10 01 03.67882
 2018-Sep-04 09:00     05 45 40.231998 -10 01 03.24420
 2018-Sep-04 09:01     05 45 40.361027 -10 01 02.80968
 2018-Sep-04 09:02     05 45 40.490002 -10 01 02.37526
 2018-Sep-04 09:03     05 45 40.618922 -10 01 01.94094
 2018-Sep-04 09:04     05 45 40.747788 -10 01 01.50672
 2018-Sep-04 09:05     05 45 40.876598 -10 01 01.07259
 2018-Sep-04 09:06     05 45 41.005354 -10 01 00.63857
 2018-Sep-04 09:07     05 45 41.134055 -10 01 00.20463
 2018-Sep-04 09:08     05 45 41.262701 -10 00 59.77080
 2018-Sep-04 09:09     05 45 41.391291 -10 00 59.33706
 2018-Sep-04 09:10     05 45 41.519826 -10 00 58.90341
 2018-Sep-04 09:11     05 45 41.648306 -10 00 58.46986
 2018-Sep-04 09:12     05 45 41.776730 -10 00 58.03640
 2018-Sep-04 09:13     05 45 41.905098 -10 00 57.60303
 2018-Sep-04 09:14     05 45 42.033410 -10 00 57.16976
 2018-Sep-04 09:15     05 45 42.161666 -10 00 56.73657
 2018-Sep-04 09:16     05 45 42.289866 -10 00 56.30348
 2018-Sep-04 09:17     05 45 42.418009 -10 00 55.87048
 2018-Sep-04 09:18     05 45 42.546097 -10 00 55.43757
 2018-Sep-04 09:19     05 45 42.674127 -10 00 55.00475
 2018-Sep-04 09:20     05 45 42.802101 -10 00 54.57201
 2018-Sep-04 09:21     05 45 42.930018 -10 00 54.13937
 2018-Sep-04 09:22     05 45 43.057878 -10 00 53.70681
 2018-Sep-04 09:23     05 45 43.185681 -10 00 53.27434
 2018-Sep-04 09:24     05 45 43.313427 -10 00 52.84195
 2018-Sep-04 09:25     05 45 43.441116 -10 00 52.40965
 2018-Sep-04 09:26     05 45 43.568748 -10 00 51.97744
 2018-Sep-04 09:27     05 45 43.696321 -10 00 51.54531
 2018-Sep-04 09:28     05 45 43.823838 -10 00 51.11326
 2018-Sep-04 09:29     05 45 43.951296 -10 00 50.68130
 2018-Sep-04 09:30     05 45 44.078697 -10 00 50.24942
 2018-Sep-04 09:31     05 45 44.206039 -10 00 49.81763
 2018-Sep-04 09:32     05 45 44.333324 -10 00 49.38591
 2018-Sep-04 09:33     05 45 44.460551 -10 00 48.95428
 2018-Sep-04 09:34     05 45 44.587719 -10 00 48.52272
 2018-Sep-04 09:35     05 45 44.714829 -10 00 48.09125
 2018-Sep-04 09:36     05 45 44.841880 -10 00 47.65985
 2018-Sep-04 09:37     05 45 44.968873 -10 00 47.22854
 2018-Sep-04 09:38     05 45 45.095807 -10 00 46.79730
 2018-Sep-04 09:39     05 45 45.222682 -10 00 46.36614
 2018-Sep-04 09:40     05 45 45.349498 -10 00 45.93505
 2018-Sep-04 09:41     05 45 45.476256 -10 00 45.50405
 2018-Sep-04 09:42     05 45 45.602954 -10 00 45.07311
 2018-Sep-04 09:43     05 45 45.729593 -10 00 44.64226
 2018-Sep-04 09:44     05 45 45.856173 -10 00 44.21147
 2018-Sep-04 09:45     05 45 45.982693 -10 00 43.78076
 2018-Sep-04 09:46     05 45 46.109154 -10 00 43.35013
 2018-Sep-04 09:47     05 45 46.235555 -10 00 42.91956
 2018-Sep-04 09:48     05 45 46.361897 -10 00 42.48907
 2018-Sep-04 09:49     05 45 46.488179 -10 00 42.05865
 2018-Sep-04 09:50     05 45 46.614401 -10 00 41.62830
 2018-Sep-04 09:51     05 45 46.740563 -10 00 41.19802
 2018-Sep-04 09:52     05 45 46.866665 -10 00 40.76781
 2018-Sep-04 09:53     05 45 46.992707 -10 00 40.33767
 2018-Sep-04 09:54     05 45 47.118688 -10 00 39.90759
 2018-Sep-04 09:55     05 45 47.244610 -10 00 39.47758
 2018-Sep-04 09:56     05 45 47.370471 -10 00 39.04765
 2018-Sep-04 09:57     05 45 47.496271 -10 00 38.61777
 2018-Sep-04 09:58     05 45 47.622011 -10 00 38.18796
 2018-Sep-04 09:59     05 45 47.747691 -10 00 37.75822
 2018-Sep-04 10:00     05 45 47.873309 -10 00 37.32854
 2018-Sep-04 10:01     05 45 47.998867 -10 00 36.89893
 2018-Sep-04 10:02     05 45 48.124364 -10 00 36.46938
 2018-Sep-04 10:03     05 45 48.249800 -10 00 36.03989
 2018-Sep-04 10:04     05 45 48.375175 -10 00 35.61046
 2018-Sep-04 10:05     05 45 48.500489 -10 00 35.18109
 2018-Sep-04 10:06     05 45 48.625742 -10 00 34.75179
 2018-Sep-04 10:07     05 45 48.750933 -10 00 34.32254
 2018-Sep-04 10:08     05 45 48.876064 -10 00 33.89335
 2018-Sep-04 10:09     05 45 49.001132 -10 00 33.46423
 2018-Sep-04 10:10     05 45 49.126140 -10 00 33.03516
 2018-Sep-04 10:11     05 45 49.251086 -10 00 32.60615
 2018-Sep-04 10:12     05 45 49.375970 -10 00 32.17719
 2018-Sep-04 10:13     05 45 49.500792 -10 00 31.74829
 2018-Sep-04 10:14     05 45 49.625553 -10 00 31.31945
 2018-Sep-04 10:15     05 45 49.750252 -10 00 30.89066
 2018-Sep-04 10:16     05 45 49.874889 -10 00 30.46192
 2018-Sep-04 10:17     05 45 49.999465 -10 00 30.03324
 2018-Sep-04 10:18     05 45 50.123978 -10 00 29.60461
 2018-Sep-04 10:19     05 45 50.248429 -10 00 29.17604
 2018-Sep-04 10:20     05 45 50.372819 -10 00 28.74751
 2018-Sep-04 10:21     05 45 50.497146 -10 00 28.31904
 2018-Sep-04 10:22     05 45 50.621411 -10 00 27.89061
 2018-Sep-04 10:23     05 45 50.745613 -10 00 27.46224
 2018-Sep-04 10:24     05 45 50.869753 -10 00 27.03391
 2018-Sep-04 10:25     05 45 50.993831 -10 00 26.60564
 2018-Sep-04 10:26     05 45 51.117847 -10 00 26.17741
 2018-Sep-04 10:27     05 45 51.241800 -10 00 25.74923
 2018-Sep-04 10:28     05 45 51.365690 -10 00 25.32109
 2018-Sep-04 10:29     05 45 51.489518 -10 00 24.89300
 2018-Sep-04 10:30     05 45 51.613284 -10 00 24.46496
 2018-Sep-04 10:31     05 45 51.736986 -10 00 24.03696
 2018-Sep-04 10:32     05 45 51.860626 -10 00 23.60900
 2018-Sep-04 10:33     05 45 51.984203 -10 00 23.18109
 2018-Sep-04 10:34     05 45 52.107718 -10 00 22.75322
 2018-Sep-04 10:35     05 45 52.231169 -10 00 22.32539
 2018-Sep-04 10:36     05 45 52.354558 -10 00 21.89761
 2018-Sep-04 10:37     05 45 52.477884 -10 00 21.46986
 2018-Sep-04 10:38     05 45 52.601146 -10 00 21.04215
 2018-Sep-04 10:39     05 45 52.724346 -10 00 20.61448
 2018-Sep-04 10:40     05 45 52.847483 -10 00 20.18686
 2018-Sep-04 10:41     05 45 52.970556 -10 00 19.75927
 2018-Sep-04 10:42     05 45 53.093567 -10 00 19.33171
 2018-Sep-04 10:43     05 45 53.216514 -10 00 18.90419
 2018-Sep-04 10:44     05 45 53.339399 -10 00 18.47671
 2018-Sep-04 10:45  m  05 45 53.462220 -10 00 18.04927
 2018-Sep-04 10:46  m  05 45 53.584978 -10 00 17.62186
 2018-Sep-04 10:47  m  05 45 53.707672 -10 00 17.19448
 2018-Sep-04 10:48  m  05 45 53.830303 -10 00 16.76714
 2018-Sep-04 10:49  m  05 45 53.952871 -10 00 16.33983
 2018-Sep-04 10:50  m  05 45 54.075376 -10 00 15.91255
 2018-Sep-04 10:51  m  05 45 54.197817 -10 00 15.48530
 2018-Sep-04 10:52  m  05 45 54.320195 -10 00 15.05808
